[{"OBJECT_NAME":"HISPASAT 36W-1","OBJECT_ID":"2017-006A","EPOCH":"2026-03-04T03:35:47.412384","MEAN_MOTION":1.00271875,"ECCENTRICITY":0.0001043,"INCLINATION":0.0119,"RA_OF_ASC_NODE":325.8482,"ARG_OF_PERICENTER":8.1647,"MEAN_ANOMALY":205.8325,"EPHEMERIS_TYPE":0,"CLASSIFICATION_TYPE":"U","NORAD_CAT_ID":41942,"ELEMENT_SET_NO":999,"REV_AT_EPOCH":3319,"BSTAR":0,"MEAN_MOTION_DOT":-2.57e-6,"MEAN_MOTION_DDOT":0},{"OBJECT_NAME":"TELKOM 3S","OBJECT_ID":"2017-007A","EPOCH":"2026-03-03T23:11:36.669696","MEAN_MOTION":1.0027075,"ECCENTRICITY":0.0002381,"INCLINATION":0.0065,"RA_OF_ASC_NODE":139.4026,"ARG_OF_PERICENTER":202.8029,"MEAN_ANOMALY":285.4057,"EPHEMERIS_TYPE":0,"CLASSIFICATION_TYPE":"U","NORAD_CAT_ID":41944,"ELEMENT_SET_NO":999,"REV_AT_EPOCH":3308,"BSTAR":0,"MEAN_MOTION_DOT":-3.76e-6,"MEAN_MOTION_DDOT":0},{"OBJECT_NAME":"INTELSAT 32E (IS-32E)","OBJECT_ID":"2017-007B","EPOCH":"2026-03-04T01:55:38.590464","MEAN_MOTION":1.00269703,"ECCENTRICITY":4.0e-5,"INCLINATION":0.0179,"RA_OF_ASC_NODE":125.6226,"ARG_OF_PERICENTER":137.777,"MEAN_ANOMALY":244.1492,"EPHEMERIS_TYPE":0,"CLASSIFICATION_TYPE":"U","NORAD_CAT_ID":41945,"ELEMENT_SET_NO":999,"REV_AT_EPOCH":3317,"BSTAR":0,"MEAN_MOTION_DOT":-2.82e-6,"MEAN_MOTION_DDOT":0},{"OBJECT_NAME":"ECHOSTAR 23","OBJECT_ID":"2017-014A","EPOCH":"2026-03-04T03:14:41.935776","MEAN_MOTION":1.00271016,"ECCENTRICITY":0.0002029,"INCLINATION":0.017,"RA_OF_ASC_NODE":134.5898,"ARG_OF_PERICENTER":212.6564,"MEAN_ANOMALY":113.4017,"EPHEMERIS_TYPE":0,"CLASSIFICATION_TYPE":"U","NORAD_CAT_ID":42070,"ELEMENT_SET_NO":999,"REV_AT_EPOCH":3287,"BSTAR":0,"MEAN_MOTION_DOT":-6.9e-7,"MEAN_MOTION_DDOT":0},{"OBJECT_NAME":"WGS F9 (USA 275)","OBJECT_ID":"2017-016A","EPOCH":"2026-03-04T01:47:38.626368","MEAN_MOTION":1.00268939,"ECCENTRICITY":7.07e-5,"INCLINATION":0.025,"RA_OF_ASC_NODE":154.5233,"ARG_OF_PERICENTER":104.4372,"MEAN_ANOMALY":277.8257,"EPHEMERIS_TYPE":0,"CLASSIFICATION_TYPE":"U","NORAD_CAT_ID":42075,"ELEMENT_SET_NO":999,"REV_AT_EPOCH":3284,"BSTAR":0,"MEAN_MOTION_DOT":0,"MEAN_MOTION_DDOT":0},{"OBJECT_NAME":"SES-10","OBJECT_ID":"2017-017A","EPOCH":"2026-03-04T03:36:38.719296","MEAN_MOTION":1.00269411,"ECCENTRICITY":0.0002706,"INCLINATION":0.0207,"RA_OF_ASC_NODE":73.7163,"ARG_OF_PERICENTER":275.6575,"MEAN_ANOMALY":159.7706,"EPHEMERIS_TYPE":0,"CLASSIFICATION_TYPE":"U","NORAD_CAT_ID":42432,"ELEMENT_SET_NO":999,"REV_AT_EPOCH":3270,"BSTAR":0,"MEAN_MOTION_DOT":-2.85e-6,"MEAN_MOTION_DDOT":0},{"OBJECT_NAME":"CHINASAT 16 (SJ-13)","OBJECT_ID":"2017-018A","EPOCH":"2026-03-04T03:43:38.560224","MEAN_MOTION":1.00268744,"ECCENTRICITY":0.0005565,"INCLINATION":0.041,"RA_OF_ASC_NODE":96.7567,"ARG_OF_PERICENTER":168.1088,"MEAN_ANOMALY":63.4547,"EPHEMERIS_TYPE":0,"CLASSIFICATION_TYPE":"U","NORAD_CAT_ID":42662,"ELEMENT_SET_NO":999,"REV_AT_EPOCH":3269,"BSTAR":0,"MEAN_MOTION_DOT":-3.64e-6,"MEAN_MOTION_DDOT":0},{"OBJECT_NAME":"KOREASAT 7","OBJECT_ID":"2017-023A","EPOCH":"2026-03-04T00:53:32.968032","MEAN_MOTION":1.00271592,"ECCENTRICITY":0.0001772,"INCLINATION":0.0307,"RA_OF_ASC_NODE":27.1665,"ARG_OF_PERICENTER":342.3651,"MEAN_ANOMALY":281.5353,"EPHEMERIS_TYPE":0,"CLASSIFICATION_TYPE":"U","NORAD_CAT_ID":42691,"ELEMENT_SET_NO":999,"REV_AT_EPOCH":3231,"BSTAR":0,"MEAN_MOTION_DOT":-3.75e-6,"MEAN_MOTION_DDOT":0},{"OBJECT_NAME":"SGDC","OBJECT_ID":"2017-023B","EPOCH":"2026-03-03T18:13:13.899360","MEAN_MOTION":1.00271776,"ECCENTRICITY":0.0002766,"INCLINATION":0.0203,"RA_OF_ASC_NODE":115.273,"ARG_OF_PERICENTER":241.1092,"MEAN_ANOMALY":3.5813,"EPHEMERIS_TYPE":0,"CLASSIFICATION_TYPE":"U","NORAD_CAT_ID":42692,"ELEMENT_SET_NO":999,"REV_AT_EPOCH":3235,"BSTAR":0,"MEAN_MOTION_DOT":-2.63e-6,"MEAN_MOTION_DDOT":0},{"OBJECT_NAME":"GSAT-9","OBJECT_ID":"2017-024A","EPOCH":"2026-03-04T03:59:38.679360","MEAN_MOTION":1.00271329,"ECCENTRICITY":0.0002033,"INCLINATION":0.1054,"RA_OF_ASC_NODE":281.6524,"ARG_OF_PERICENTER":64.2288,"MEAN_ANOMALY":333.2721,"EPHEMERIS_TYPE":0,"CLASSIFICATION_TYPE":"U","NORAD_CAT_ID":42695,"ELEMENT_SET_NO":999,"REV_AT_EPOCH":3224,"BSTAR":0,"MEAN_MOTION_DOT":-2.99e-6,"MEAN_MOTION_DDOT":0},{"OBJECT_NAME":"INMARSAT 5-F4","OBJECT_ID":"2017-025A","EPOCH":"2026-03-04T02:19:32.223936","MEAN_MOTION":1.00269944,"ECCENTRICITY":1.66e-5,"INCLINATION":0.0201,"RA_OF_ASC_NODE":134.4528,"ARG_OF_PERICENTER":208.4165,"MEAN_ANOMALY":270.345,"EPHEMERIS_TYPE":0,"CLASSIFICATION_TYPE":"U","NORAD_CAT_ID":42698,"ELEMENT_SET_NO":999,"REV_AT_EPOCH":3222,"BSTAR":0,"MEAN_MOTION_DOT":6.3e-7,"MEAN_MOTION_DDOT":0},{"OBJECT_NAME":"SES-15","OBJECT_ID":"2017-026A","EPOCH":"2026-03-04T03:09:12.460608","MEAN_MOTION":1.00270724,"ECCENTRICITY":7.25e-5,"INCLINATION":0.0446,"RA_OF_ASC_NODE":309.4036,"ARG_OF_PERICENTER":34.29,"MEAN_ANOMALY":96.3137,"EPHEMERIS_TYPE":0,"CLASSIFICATION_TYPE":"U","NORAD_CAT_ID":42709,"ELEMENT_SET_NO":999,"REV_AT_EPOCH":637,"BSTAR":0,"MEAN_MOTION_DOT":4.7e-7,"MEAN_MOTION_DDOT":0},{"OBJECT_NAME":"QZS-2 (MICHIBIKI-2)","OBJECT_ID":"2017-028A","EPOCH":"2026-03-03T16:34:06.798144","MEAN_MOTION":1.00262193,"ECCENTRICITY":0.07457728,"INCLINATION":39.5914,"RA_OF_ASC_NODE":244.6899,"ARG_OF_PERICENTER":270.3237,"MEAN_ANOMALY":36.6065,"EPHEMERIS_TYPE":0,"CLASSIFICATION_TYPE":"U","NORAD_CAT_ID":42738,"ELEMENT_SET_NO":999,"REV_AT_EPOCH":656,"BSTAR":0,"MEAN_MOTION_DOT":-1.77e-6,"MEAN_MOTION_DDOT":0},{"OBJECT_NAME":"VIASAT-2","OBJECT_ID":"2017-029A","EPOCH":"2026-03-04T01:43:28.181280","MEAN_MOTION":1.00272219,"ECCENTRICITY":6.15e-5,"INCLINATION":0.0245,"RA_OF_ASC_NODE":247.4016,"ARG_OF_PERICENTER":132.12,"MEAN_ANOMALY":98.2655,"EPHEMERIS_TYPE":0,"CLASSIFICATION_TYPE":"U","NORAD_CAT_ID":42740,"ELEMENT_SET_NO":999,"REV_AT_EPOCH":3215,"BSTAR":0,"MEAN_MOTION_DOT":-2.78e-6,"MEAN_MOTION_DDOT":0},{"OBJECT_NAME":"EUTELSAT 172B","OBJECT_ID":"2017-029B","EPOCH":"2026-03-04T02:52:29.064576","MEAN_MOTION":1.00273035,"ECCENTRICITY":1.6e-5,"INCLINATION":0.0193,"RA_OF_ASC_NODE":153.7773,"ARG_OF_PERICENTER":105.4726,"MEAN_ANOMALY":117.7193,"EPHEMERIS_TYPE":0,"CLASSIFICATION_TYPE":"U","NORAD_CAT_ID":42741,"ELEMENT_SET_NO":999,"REV_AT_EPOCH":3268,"BSTAR":0,"MEAN_MOTION_DOT":-1.8e-7,"MEAN_MOTION_DDOT":0},{"OBJECT_NAME":"GSAT-19","OBJECT_ID":"2017-031A","EPOCH":"2026-03-03T20:30:38.659104","MEAN_MOTION":1.00272857,"ECCENTRICITY":0.0003714,"INCLINATION":0.0781,"RA_OF_ASC_NODE":90.7065,"ARG_OF_PERICENTER":293.7812,"MEAN_ANOMALY":132.644,"EPHEMERIS_TYPE":0,"CLASSIFICATION_TYPE":"U","NORAD_CAT_ID":42747,"ELEMENT_SET_NO":999,"REV_AT_EPOCH":3209,"BSTAR":0,"MEAN_MOTION_DOT":1.12e-6,"MEAN_MOTION_DDOT":0},{"OBJECT_NAME":"ECHOSTAR 21","OBJECT_ID":"2017-032A","EPOCH":"2026-03-04T03:49:01.145856","MEAN_MOTION":1.00272272,"ECCENTRICITY":0.000271,"INCLINATION":1.7935,"RA_OF_ASC_NODE":348.8281,"ARG_OF_PERICENTER":338.8391,"MEAN_ANOMALY":261.7306,"EPHEMERIS_TYPE":0,"CLASSIFICATION_TYPE":"U","NORAD_CAT_ID":42749,"ELEMENT_SET_NO":999,"REV_AT_EPOCH":3204,"BSTAR":0,"MEAN_MOTION_DOT":5.3e-7,"MEAN_MOTION_DDOT":0},{"OBJECT_NAME":"BULGARIASAT-1","OBJECT_ID":"2017-038A","EPOCH":"2026-03-04T03:46:38.871840","MEAN_MOTION":1.0027344,"ECCENTRICITY":0.0003099,"INCLINATION":0.0454,"RA_OF_ASC_NODE":264.6489,"ARG_OF_PERICENTER":87.5957,"MEAN_ANOMALY":228.2048,"EPHEMERIS_TYPE":0,"CLASSIFICATION_TYPE":"U","NORAD_CAT_ID":42801,"ELEMENT_SET_NO":999,"REV_AT_EPOCH":3178,"BSTAR":0,"MEAN_MOTION_DOT":-1.0e-8,"MEAN_MOTION_DDOT":0},{"OBJECT_NAME":"HELLAS-SAT 3","OBJECT_ID":"2017-040A","EPOCH":"2026-03-04T01:21:38.630304","MEAN_MOTION":1.0027568,"ECCENTRICITY":0.0005098,"INCLINATION":0.0551,"RA_OF_ASC_NODE":28.724,"ARG_OF_PERICENTER":332.5544,"MEAN_ANOMALY":219.9546,"EPHEMERIS_TYPE":0,"CLASSIFICATION_TYPE":"U","NORAD_CAT_ID":42814,"ELEMENT_SET_NO":999,"REV_AT_EPOCH":3175,"BSTAR":0,"MEAN_MOTION_DOT":1.39e-6,"MEAN_MOTION_DDOT":0},{"OBJECT_NAME":"GSAT-17","OBJECT_ID":"2017-040B","EPOCH":"2026-03-04T00:47:18.567456","MEAN_MOTION":1.00270146,"ECCENTRICITY":0.0005074,"INCLINATION":0.0414,"RA_OF_ASC_NODE":300.1869,"ARG_OF_PERICENTER":347.0571,"MEAN_ANOMALY":339.8674,"EPHEMERIS_TYPE":0,"CLASSIFICATION_TYPE":"U","NORAD_CAT_ID":42815,"ELEMENT_SET_NO":999,"REV_AT_EPOCH":3173,"BSTAR":0,"MEAN_MOTION_DOT":-2.7e-6,"MEAN_MOTION_DDOT":0},{"OBJECT_NAME":"INTELSAT 35E (IS-35E)","OBJECT_ID":"2017-041A","EPOCH":"2026-03-04T03:36:09.876384","MEAN_MOTION":1.00271073,"ECCENTRICITY":0.0002238,"INCLINATION":0.03,"RA_OF_ASC_NODE":249.2869,"ARG_OF_PERICENTER":93.2262,"MEAN_ANOMALY":198.9033,"EPHEMERIS_TYPE":0,"CLASSIFICATION_TYPE":"U","NORAD_CAT_ID":42818,"ELEMENT_SET_NO":999,"REV_AT_EPOCH":3176,"BSTAR":0,"MEAN_MOTION_DOT":-2.51e-6,"MEAN_MOTION_DDOT":0},{"OBJECT_NAME":"COSMOS 2520","OBJECT_ID":"2017-046A","EPOCH":"2026-03-04T02:16:10.047936","MEAN_MOTION":1.00274763,"ECCENTRICITY":7.88e-5,"INCLINATION":0.0279,"RA_OF_ASC_NODE":105.2684,"ARG_OF_PERICENTER":14.4148,"MEAN_ANOMALY":121.2052,"EPHEMERIS_TYPE":0,"CLASSIFICATION_TYPE":"U","NORAD_CAT_ID":42907,"ELEMENT_SET_NO":999,"REV_AT_EPOCH":3134,"BSTAR":0,"MEAN_MOTION_DOT":1.24e-6,"MEAN_MOTION_DDOT":0},{"OBJECT_NAME":"TDRS 13","OBJECT_ID":"2017-047A","EPOCH":"2026-03-04T03:42:46.742688","MEAN_MOTION":1.00272185,"ECCENTRICITY":0.0010201,"INCLINATION":3.4296,"RA_OF_ASC_NODE":0.0589,"ARG_OF_PERICENTER":99.2246,"MEAN_ANOMALY":106.8409,"EPHEMERIS_TYPE":0,"CLASSIFICATION_TYPE":"U","NORAD_CAT_ID":42915,"ELEMENT_SET_NO":999,"REV_AT_EPOCH":3129,"BSTAR":0,"MEAN_MOTION_DOT":-1.1e-6,"MEAN_MOTION_DDOT":0},{"OBJECT_NAME":"QZS-3 (MICHIBIKI-3)","OBJECT_ID":"2017-048A","EPOCH":"2026-03-04T00:56:55.145760","MEAN_MOTION":1.00276118,"ECCENTRICITY":0.0002246,"INCLINATION":0.0732,"RA_OF_ASC_NODE":217.5376,"ARG_OF_PERICENTER":136.1343,"MEAN_ANOMALY":309.3169,"EPHEMERIS_TYPE":0,"CLASSIFICATION_TYPE":"U","NORAD_CAT_ID":42917,"ELEMENT_SET_NO":999,"REV_AT_EPOCH":3120,"BSTAR":0,"MEAN_MOTION_DOT":-3.61e-6,"MEAN_MOTION_DDOT":0}]
